OBJECT_NAME,OBJECT_ID,EPOCH,MEAN_MOTION,ECCENTRICITY,INCLINATION,RA_OF_ASC_NODE,ARG_OF_PERICENTER,MEAN_ANOMALY,EPHEMERIS_TYPE,CLASSIFICATION_TYPE,NORAD_CAT_ID,ELEMENT_SET_NO,REV_AT_EPOCH,BSTAR,MEAN_MOTION_DOT,MEAN_MOTION_DDOT
WORLDVIEW-3 (WV-3),2014-048A,2026-06-05T18:43:13.763424,14.85003244,.0001816,97.8567,231.7704,43.1648,316.9709,0,U,40115,999,64021,.12616E-3,.1023E-4,0
GAOFEN-2,2014-049A,2026-06-05T19:47:54.796992,14.80887979,.0005868,98.0109,221.0426,272.4857,87.5684,0,U,40118,999,63755,.12635E-3,.923E-5,0
YAOGAN-21,2014-053A,2026-06-05T21:16:05.743776,15.26200652,.000968,97.1480,197.6079,125.6383,234.5759,0,U,40143,999,65323,.27997E-3,.7183E-4,0
YAOGAN-22,2014-063A,2026-06-05T16:50:50.896608,13.15530685,.0006077,100.7711,307.7851,211.6408,148.4338,0,U,40275,999,55830,.29481E-4,-.36E-6,0
ASNARO,2014-070A,2026-06-05T19:57:15.145920,15.19255489,.000444,97.3449,233.2541,203.7267,156.3764,0,U,40298,999,64228,.31586E-3,.6594E-4,0
YAOGAN-24,2014-072A,2026-06-05T19:55:42.213216,14.76209220,.0012847,98.1479,294.0730,304.0194,55.9794,0,U,40310,999,62204,.15057E-3,.99E-5,0
CBERS 4,2014-079A,2026-06-05T21:14:14.516736,14.35505844,.0002066,98.3531,214.0706,74.7840,285.3574,0,U,40336,999,60233,.37583E-4,.66E-6,0
YAOGAN-26,2014-088A,2026-06-05T19:33:17.728128,15.46879421,.0006688,97.0647,157.2944,91.9732,268.2285,0,U,40362,999,63594,.55775E-3,.28037E-3,0
SMAP,2015-003A,2026-06-05T19:08:46.317120,14.63356408,.0001257,98.1276,164.0537,92.0091,268.1255,0,U,40376,999,60595,.10235E-3,.482E-5,0
KOMPSAT-3A,2015-014A,2026-06-05T20:13:08.078304,15.53466406,.0055503,97.6889,147.3803,215.9473,143.8041,0,U,40536,999,62005,.4141E-3,.28019E-3,0
SENTINEL-2A,2015-028A,2026-06-05T19:35:10.024800,14.30820704,.0001067,98.5682,231.8286,82.5658,277.5646,0,U,40697,999,57210,.10231E-3,.225E-5,0
GAOFEN-8,2015-030A,2026-06-05T19:46:11.951616,15.45526956,.0007863,97.6911,349.5157,229.6506,130.4055,0,U,40701,999,60969,.44576E-3,.21354E-3,0
CARBONITE 1 (CBNT-1),2015-032D,2026-06-05T18:49:04.513728,14.83552216,.0013993,97.6503,335.3285,338.2526,21.8093,0,U,40718,999,58765,.26999E-3,.2176E-4,0
YAOGAN-27,2015-040A,2026-06-05T20:29:02.088096,13.16070664,.0007439,100.1152,143.7284,238.8480,121.1905,0,U,40878,999,51617,.10079E-2,.34E-5,0
GAOFEN-9 01,2015-047A,2026-06-05T20:40:05.531232,14.82862014,.002749,97.6285,193.0702,174.0481,186.1065,0,U,40894,999,57851,.13943E-3,.1085E-4,0
YAOGAN-28,2015-064A,2026-06-05T20:34:56.172576,15.27268701,.000966,97.3066,295.3524,225.0005,135.0452,0,U,41026,999,58895,.30456E-3,.8076E-4,0
YAOGAN-29,2015-069A,2026-06-05T20:14:07.334880,14.83076620,.0002986,98.0028,185.4580,72.5568,287.5972,0,U,41038,999,56894,.10523E-3,.802E-5,0
KENT RIDGE 1,2015-077B,2026-06-05T04:18:09.817056,15.23056150,.0008325,14.9812,355.2827,68.6324,291.4886,0,U,41167,999,57926,.14998E-3,.4407E-4,0
GAOFEN-4,2015-083A,2026-06-05T20:51:47.365344,1.00269620,.0004337,0.3280,83.7730,108.8744,120.2872,0,U,41194,999,3841,0,-.322E-5,0
JASON-3,2016-002A,2026-06-05T19:38:10.034880,12.87627748,.0008606,66.0390,149.7374,273.2244,86.7791,0,U,41240,999,48578,.39832E-4,-.52E-6,0
SENTINEL-3A,2016-011A,2026-06-05T18:50:58.305120,14.26736837,.0001321,98.6251,224.3323,105.3152,254.8174,0,U,41335,999,53643,.69554E-4,.125E-5,0
ZIYUAN 3-02 (ZY 3-02),2016-033A,2026-06-05T21:03:18.181728,15.21369114,.0011853,97.3832,232.8676,334.3933,25.6714,0,U,41556,999,55626,.28196E-3,.6263E-4,0
CARTOSAT-2C,2016-040A,2026-06-05T20:43:41.138976,15.19219756,.0009539,97.4484,216.9965,166.7983,193.3503,0,U,41599,999,55199,.10668E-3,.218E-4,0
SKYSAT-C1,2016-040C,2026-06-05T08:40:06.537792,15.36091183,.000427,96.9566,188.7236,81.1360,279.0369,0,U,41601,999,55605,.26083E-3,.9098E-4,0
LAPAN-A3,2016-040E,2026-06-05T20:00:57.810816,15.33031155,.0011955,97.1490,153.3537,62.0822,298.1630,0,U,41603,999,55307,.12197E-3,.3824E-4,0
GAOFEN-3,2016-049A,2026-06-05T20:16:24.769632,14.42213808,.0001167,98.4012,164.8020,96.1955,263.9368,0,U,41727,999,51701,.1817E-4,.16E-6,0
SKYSAT-C4,2016-058B,2026-06-05T07:29:00.860064,15.48200882,.0000971,96.9178,178.5840,78.7321,281.4039,0,U,41771,999,54363,.29904E-3,.15661E-3,0
SKYSAT-C5,2016-058C,2026-06-05T08:45:52.828992,15.34293561,.0002437,97.0473,197.5342,14.9757,345.1558,0,U,41772,999,54193,.2272E-3,.747E-4,0
SKYSAT-C2,2016-058D,2026-06-05T18:32:49.928640,15.41804845,.0005206,97.0171,179.2995,94.6051,265.5792,0,U,41773,999,54329,.3643E-3,.15365E-3,0
SKYSAT-C3,2016-058E,2026-06-05T08:18:54.899136,15.52014879,.0002078,96.9013,187.6532,80.7564,279.3925,0,U,41774,999,54427,.33339E-3,.19999E-3,0
ALSAT-1B,2016-059C,2026-06-05T19:44:07.141632,14.72266188,.0007716,97.7752,166.0766,263.4976,96.5353,0,U,41785,999,51890,.74897E-4,.426E-5,0
PATHFINDER 1,2016-059E,2026-06-05T19:39:32.584896,14.67650304,.0027095,97.8166,156.6086,241.1944,118.6540,0,U,41787,999,51804,.13099E-3,.702E-5,0
SCATSAT 1,2016-059H,2026-06-05T02:34:36.184800,14.79499810,.0053316,98.1196,219.7487,287.3684,72.1701,0,U,41790,999,9980,.16352E-3,.1194E-4,0
GOKTURK 1A,2016-073A,2026-06-05T21:22:31.740096,14.62766200,.0001461,98.1261,51.7416,76.6008,283.5357,0,U,41875,999,50717,.81036E-4,.367E-5,0
RESOURCESAT-2A,2016-074A,2026-06-05T19:25:53.220864,14.21613742,.0003272,98.7524,230.4065,103.9838,256.1703,0,U,41877,999,49268,.19116E-3,.375E-5,0
CARTOSAT-2D,2017-008A,2026-06-05T15:10:45.234336,15.19236200,.0003728,97.4122,216.1531,285.1069,74.9753,0,U,41948,999,51582,-.99469E-4,-.216E-4,0
SENTINEL-2B,2017-013A,2026-06-05T19:24:46.681632,14.30814332,.0001221,98.5690,231.7433,82.1743,277.9578,0,U,42063,999,48301,.13211E-3,.303E-5,0
CARTOSAT-2E,2017-036C,2026-06-05T20:20:36.038976,15.19227751,.0003367,97.4275,216.8362,6.3659,353.7617,0,U,42767,999,49642,.17741E-3,.3669E-4,0
FORMOSAT-5,2017-049A,2026-06-05T19:29:04.752384,14.50894655,.0012607,98.2254,232.3741,115.7656,244.4842,0,U,42920,999,46502,.66753E-4,.22E-5,0
SENTINEL-5P,2017-064A,2026-06-05T13:43:13.450080,14.19516921,.0000994,98.7922,98.7858,81.0141,279.1148,0,U,42969,999,44791,.53009E-4,.67E-6,0
SKYSAT-C11,2017-068A,2026-06-05T08:45:22.430016,15.57259063,.0001175,97.4346,304.6876,87.6426,272.4964,0,U,42987,999,48140,.34801E-3,.25292E-3,0
SKYSAT-C10,2017-068B,2026-06-05T14:52:56.144928,15.34433007,.0001298,97.4497,293.3574,89.5268,270.6123,0,U,42988,999,48058,.30097E-3,.9959E-4,0
SKYSAT-C9,2017-068C,2026-06-05T08:37:00.338016,15.41256736,.000879,97.4417,293.9165,171.3348,188.8052,0,U,42989,999,48093,.29359E-3,.12142E-3,0
SKYSAT-C8,2017-068D,2026-06-05T08:21:46.111104,15.36733367,.0001594,97.4515,292.8380,99.3532,260.7892,0,U,42990,999,48049,.26974E-3,.9599E-4,0
SKYSAT-C7,2017-068E,2026-06-05T08:12:00.064224,15.36679572,.0006888,97.4525,293.8200,141.3756,218.7982,0,U,42991,999,48055,.28803E-3,.10245E-3,0
SKYSAT-C6,2017-068F,2026-06-05T14:26:24.741600,15.34006093,.0003719,97.4559,294.0953,168.9448,191.1877,0,U,42992,999,48054,.30932E-3,.10101E-3,0
CARTOSAT-2F,2018-004A,2026-06-05T19:31:42.667392,15.19281547,.0000232,97.4791,216.5584,22.4539,337.6705,0,U,43111,999,46560,.14915E-3,.3078E-4,0
GAOFEN-1 02,2018-031A,2026-06-05T20:17:12.198912,14.76464487,.0004459,98.0526,219.4032,58.3281,301.8363,0,U,43259,999,44102,.90711E-4,.58E-5,0
GAOFEN-1 03,2018-031B,2026-06-05T21:23:19.925376,14.76452948,.0003815,98.0526,219.3089,101.6849,258.4788,0,U,43260,999,44102,.12959E-3,.85E-5,0
GAOFEN-1 04,2018-031D,2026-06-05T20:48:24.103296,14.76462605,.00022,98.0527,219.4740,92.7305,267.4156,0,U,43262,999,44101,.13251E-3,.871E-5,0
SENTINEL-3B,2018-039A,2026-06-05T11:28:20.737056,14.26738325,.0000937,98.6250,224.1778,75.1452,284.9833,0,U,43437,999,42245,.68428E-4,.122E-5,0
GAOFEN-5 01,2018-043A,2026-06-05T19:50:40.443936,14.60597567,.0002962,98.4564,128.1751,104.1330,256.0198,0,U,43461,999,43003,.95022E-4,.413E-5,0
GAOFEN-6,2018-048A,2026-06-05T21:21:40.411584,14.76620682,.0011165,97.7758,219.9882,205.7296,154.3360,0,U,43484,999,43172,.15787E-3,.1055E-4,0
GAOFEN-11 01,2018-063A,2026-06-05T20:21:45.610848,15.54946009,.0004444,97.1293,223.7614,36.4748,323.6808,0,U,43585,999,43858,.18867E-3,.12534E-3,0
ICESAT-2,2018-070A,2026-06-05T16:42:20.195712,15.28311518,.0004809,92.0072,287.8759,119.5265,240.6465,0,U,43613,999,43070,.39515E-3,.10898E-3,0
HYSIS,2018-096A,2026-06-05T20:13:59.685888,14.78672162,.000157,97.9839,223.6794,112.9657,247.1719,0,U,43719,999,40574,.17369E-3,.1221E-4,0
KAZSTSAT,2018-099AB,2026-06-05T08:32:05.961120,14.99833502,.0007549,97.4265,188.8226,100.5317,259.6758,0,U,43783,999,40953,.11049E-3,.1313E-4,0
SAUDISAT 5A,2018-102A,2026-06-05T20:03:02.086848,15.27927309,.0010122,97.3067,218.6358,165.0931,195.0609,0,U,43831,999,41394,.23487E-3,.6337E-4,0
SAUDISAT 5B,2018-102C,2026-06-05T20:32:56.994144,15.28190374,.0010754,97.3175,221.7053,167.6585,192.4920,0,U,43833,999,41406,.22616E-3,.615E-4,0
GAOFEN-10R,2019-066A,2026-06-05T21:16:20.971776,14.83035549,.0005844,98.0497,110.3837,159.4470,200.6980,0,U,44622,999,36070,.16862E-3,.1317E-4,0
CARTOSAT-3,2019-081A,2026-06-05T19:53:15.673632,15.19199254,.0012091,97.4308,218.8778,186.7401,173.3673,0,U,44804,999,36174,.19304E-3,.4001E-4,0
GAOFEN-12 01,2019-082A,2026-06-05T20:38:31.813152,14.80449127,.0002502,97.8101,163.5386,83.8470,276.3028,0,U,44819,999,35241,.65009E-4,.446E-5,0
CSG-1,2019-092A,2026-06-05T20:16:12.969984,14.82155105,.0001441,97.8887,340.6115,91.2828,268.8550,0,U,44873,999,34979,.67252E-4,.483E-5,0
NEMO-HD,2020-061F,2026-06-05T20:33:16.979328,15.44358112,.0002659,97.1920,218.9254,93.8353,266.3200,0,U,46277,999,32023,.26717E-3,.12244E-3,0
SENTINEL-6A,2020-086A,2026-06-05T08:58:41.627424,12.80929664,.0007954,66.0384,159.5883,270.2058,89.8046,0,U,46984,999,25881,.26461E-4,-.55E-6,0
CAS500-1,2021-022A,2026-06-05T20:57:03.661056,15.20198045,.0004422,97.3908,52.3542,347.1200,12.9922,0,U,47932,999,28904,.34841E-3,.7483E-4,0
GAOFEN-12 02,2021-026A,2026-06-05T20:52:42.764160,14.80287186,.0003322,97.9920,155.0970,272.9727,87.1104,0,U,48079,999,28008,.64552E-4,.439E-5,0
